{
  "type": "FeatureCollection",
  "features": [
    {
      "type": "Feature",
      "properties": {
        "norad_id": 66835,
        "name": "STARLINK-35890",
        "group": "last-30-days",
        "lat": -68.03358725754534,
        "lon": 97.88525453748885,
        "alt_km": 413.37102979150677,
        "timestamp": "2025-12-25T20:42:37.408743+00:00",
        "meta_object_name": "STARLINK-35890",
        "meta_object_id": "2025-280Q",
        "meta_epoch": "2025-12-24T23:24:36.295776",
        "meta_mean_motion": 15.52545168,
        "meta_eccentricity": 0.00032061,
        "meta_inclination": 70.0007,
        "meta_ra_of_asc_node": 164.8698,
        "meta_arg_of_pericenter": 274.9067,
        "meta_mean_anomaly": 85.1754,
        "meta_ephemeris_type": 0,
        "meta_classification_type": "U",
        "meta_norad_cat_id": 66835,
        "meta_element_set_no": 999,
        "meta_rev_at_epoch": 483,
        "meta_bstar": 0.0012039707,
        "meta_mean_motion_dot": 0.0007467,
        "meta_mean_motion_ddot": 0,
        "tle_line1": "1 66835U 25280Q   25358.97542009  .00074670  00000+0  12040-2 0  9996",
        "tle_line2": "2 66835  70.0007 164.8698 0003206 274.9067  85.1754 15.52545168  4839"
      },
      "geometry": {
        "type": "Point",
        "coordinates": [
          97.88525453748885,
          -68.03358725754534
        ]
      }
    },
    {
      "type": "Feature",
      "properties": {
        "norad_id": 66836,
        "name": "STARLINK-35838",
        "group": "last-30-days",
        "lat": -67.21278720492711,
        "lon": 102.32850876429796,
        "alt_km": 413.4897828894691,
        "timestamp": "2025-12-25T20:42:37.408753+00:00",
        "meta_object_name": "STARLINK-35838",
        "meta_object_id": "2025-280R",
        "meta_epoch": "2025-12-24T23:24:06.579360",
        "meta_mean_motion": 15.52546198,
        "meta_eccentricity": 0.00031611,
        "meta_inclination": 70.0009,
        "meta_ra_of_asc_node": 164.8681,
        "meta_arg_of_pericenter": 273.1712,
        "meta_mean_anomaly": 86.9113,
        "meta_ephemeris_type": 0,
        "meta_classification_type": "U",
        "meta_norad_cat_id": 66836,
        "meta_element_set_no": 999,
        "meta_rev_at_epoch": 483,
        "meta_bstar": 0.00095817586,
        "meta_mean_motion_dot": 0.00059278,
        "meta_mean_motion_ddot": 0,
        "tle_line1": "1 66836U 25280R   25358.97507615  .00059278  00000+0  95818-3 0  9993",
        "tle_line2": "2 66836  70.0009 164.8681 0003161 273.1712  86.9113 15.52546198  4834"
      },
      "geometry": {
        "type": "Point",
        "coordinates": [
          102.32850876429796,
          -67.21278720492711
        ]
      }
    },
    {
      "type": "Feature",
      "properties": {
        "norad_id": 66837,
        "name": "STARLINK-35729",
        "group": "last-30-days",
        "lat": -66.22704683782942,
        "lon": 106.65923530567986,
        "alt_km": 413.3043515114359,
        "timestamp": "2025-12-25T20:42:37.408763+00:00",
        "meta_object_name": "STARLINK-35729",
        "meta_object_id": "2025-280S",
        "meta_epoch": "2025-12-24T23:23:36.977856",
        "meta_mean_motion": 15.525473,
        "meta_eccentricity": 0.00032486,
        "meta_inclination": 70.0009,
        "meta_ra_of_asc_node": 164.8667,
        "meta_arg_of_pericenter": 274.5701,
        "meta_mean_anomaly": 85.5115,
        "meta_ephemeris_type": 0,
        "meta_classification_type": "U",
        "meta_norad_cat_id": 66837,
        "meta_element_set_no": 999,
        "meta_rev_at_epoch": 483,
        "meta_bstar": 0.0013120151,
        "meta_mean_motion_dot": 0.00081463,
        "meta_mean_motion_ddot": 0,
        "tle_line1": "1 66837U 25280S   25358.97473354  .00081463  00000+0  13120-2 0  9992",
        "tle_line2": "2 66837  70.0009 164.8667 0003248 274.5701  85.5115 15.52547300  4831"
      },
      "geometry": {
        "type": "Point",
        "coordinates": [
          106.65923530567986,
          -66.22704683782942
        ]
      }
    },
    {
      "type": "Feature",
      "properties": {
        "norad_id": 66838,
        "name": "STARLINK-35886",
        "group": "last-30-days",
        "lat": -64.07836603227587,
        "lon": 113.89593658275423,
        "alt_km": 413.5317481577322,
        "timestamp": "2025-12-25T20:42:37.408773+00:00",
        "meta_object_name": "STARLINK-35886",
        "meta_object_id": "2025-280T",
        "meta_epoch": "2025-12-24T23:22:36.703488",
        "meta_mean_motion": 15.52537791,
        "meta_eccentricity": 0.00033633,
        "meta_inclination": 70.0009,
        "meta_ra_of_asc_node": 164.8636,
        "meta_arg_of_pericenter": 273.8576,
        "meta_mean_anomaly": 86.2227,
        "meta_ephemeris_type": 0,
        "meta_classification_type": "U",
        "meta_norad_cat_id": 66838,
        "meta_element_set_no": 999,
        "meta_rev_at_epoch": 483,
        "meta_bstar": 0.00051508963,
        "meta_mean_motion_dot": 0.00031669,
        "meta_mean_motion_ddot": 0,
        "tle_line1": "1 66838U 25280T   25358.97403592  .00031669  00000+0  51509-3 0  9997",
        "tle_line2": "2 66838  70.0009 164.8636 0003363 273.8576  86.2227 15.52537791  4833"
      },
      "geometry": {
        "type": "Point",
        "coordinates": [
          113.89593658275423,
          -64.07836603227587
        ]
      }
    },
    {
      "type": "Feature",
      "properties": {
        "norad_id": 66839,
        "name": "STARLINK-35717",
        "group": "last-30-days",
        "lat": -65.13542682039103,
        "lon": 110.6276049782724,
        "alt_km": 413.185187953949,
        "timestamp": "2025-12-25T20:42:37.408783+00:00",
        "meta_object_name": "STARLINK-35717",
        "meta_object_id": "2025-280U",
        "meta_epoch": "2025-12-24T23:23:07.336608",
        "meta_mean_motion": 15.52553466,
        "meta_eccentricity": 0.00032902,
        "meta_inclination": 70.0009,
        "meta_ra_of_asc_node": 164.8649,
        "meta_arg_of_pericenter": 276.2308,
        "meta_mean_anomaly": 83.8504,
        "meta_ephemeris_type": 0,
        "meta_classification_type": "U",
        "meta_norad_cat_id": 66839,
        "meta_element_set_no": 999,
        "meta_rev_at_epoch": 483,
        "meta_bstar": 0.0015011326,
        "meta_mean_motion_dot": 0.00093391,
        "meta_mean_motion_ddot": 0,
        "tle_line1": "1 66839U 25280U   25358.97439047  .00093391  00000+0  15011-2 0  9999",
        "tle_line2": "2 66839  70.0009 164.8649 0003290 276.2308  83.8504 15.52553466  4835"
      },
      "geometry": {
        "type": "Point",
        "coordinates": [
          110.6276049782724,
          -65.13542682039103
        ]
      }
    },
    {
      "type": "Feature",
      "properties": {
        "norad_id": 66840,
        "name": "STARLINK-35837",
        "group": "last-30-days",
        "lat": -62.78412204012355,
        "lon": 117.33889088469428,
        "alt_km": 413.2478073363973,
        "timestamp": "2025-12-25T20:42:37.408795+00:00",
        "meta_object_name": "STARLINK-35837",
        "meta_object_id": "2025-280V",
        "meta_epoch": "2025-12-24T23:22:07.983264",
        "meta_mean_motion": 15.52534676,
        "meta_eccentricity": 0.00033449,
        "meta_inclination": 70.0008,
        "meta_ra_of_asc_node": 164.8627,
        "meta_arg_of_pericenter": 273.4281,
        "meta_mean_anomaly": 86.6523,
        "meta_ephemeris_type": 0,
        "meta_classification_type": "U",
        "meta_norad_cat_id": 66840,
        "meta_element_set_no": 999,
        "meta_rev_at_epoch": 483,
        "meta_bstar": 0.0014647523,
        "meta_mean_motion_dot": 0.00091035,
        "meta_mean_motion_ddot": 0,
        "tle_line1": "1 66840U 25280V   25358.97370351  .00091035  00000+0  14648-2 0  9991",
        "tle_line2": "2 66840  70.0008 164.8627 0003344 273.4281  86.6523 15.52534676  4835"
      },
      "geometry": {
        "type": "Point",
        "coordinates": [
          117.33889088469428,
          -62.78412204012355
        ]
      }
    },
    {
      "type": "Feature",
      "properties": {
        "norad_id": 66841,
        "name": "STARLINK-35715",
        "group": "last-30-days",
        "lat": -61.50001369352107,
        "lon": 120.29666885830638,
        "alt_km": 413.4244071955136,
        "timestamp": "2025-12-25T20:42:37.408805+00:00",
        "meta_object_name": "STARLINK-35715",
        "meta_object_id": "2025-280W",
        "meta_epoch": "2025-12-24T23:21:38.374848",
        "meta_mean_motion": 15.52550003,
        "meta_eccentricity": 0.00033118,
        "meta_inclination": 70.0008,
        "meta_ra_of_asc_node": 164.8614,
        "meta_arg_of_pericenter": 269.731,
        "meta_mean_anomaly": 90.3497,
        "meta_ephemeris_type": 0,
        "meta_classification_type": "U",
        "meta_norad_cat_id": 66841,
        "meta_element_set_no": 999,
        "meta_rev_at_epoch": 483,
        "meta_bstar": 0.0010288218,
        "meta_mean_motion_dot": 0.00063707,
        "meta_mean_motion_ddot": 0,
        "tle_line1": "1 66841U 25280W   25358.97336082  .00063707  00000+0  10288-2 0  9996",
        "tle_line2": "2 66841  70.0008 164.8614 0003311 269.7310  90.3497 15.52550003  4831"
      },
      "geometry": {
        "type": "Point",
        "coordinates": [
          120.29666885830638,
          -61.50001369352107
        ]
      }
    }
  ]
}